GLOBALSTAR M069         
1 31573U 07020C   26189.01644720 -.00000067  00000+0  23499-3 0  9991
2 31573  51.9998 193.1708 0001855 193.8823 195.2522 12.23472148881359
GLOBALSTAR M072         
1 31574U 07020D   26189.04554352 -.00000085  00000+0 -16806-4 0  9992
2 31574  51.9943  44.7153 0001614  21.2717 145.3602 11.91658618877468
GLOBALSTAR M066         
1 32265U 07048C   26188.80157104 -.00000037  00000+0  48610-3 0  9990
2 32265  51.9607 358.7350 0005667  87.1559  19.0466 12.30388890862765
GLOBALSTAR M079         
1 37188U 10054A   26188.03045366 -.00000100  00000+0  19121-4 0  9998
2 37188  52.0047  48.2647 0001071  64.0932  83.4218 12.62266480725053
GLOBALSTAR M074         
1 37189U 10054B   26189.01090822 -.00000102  00000+0  12132-4 0  9992
2 37189  52.0029  44.5420 0000855  82.5330  82.5752 12.62261985725786
GLOBALSTAR M076         
1 37190U 10054C   26188.78088595 -.00000103  00000+0  20026-5 0  9994
2 37190  52.0039  45.4473 0001069  77.7122   1.5351 12.62262088725477
GLOBALSTAR M077         
1 37191U 10054D   26188.26643811 -.00000068  00000+0  18138-3 0  9995
2 37191  51.9942 128.3305 0002397 209.9382 317.0362 11.67547897723480
GLOBALSTAR M075         
1 37192U 10054E   26189.20998132 -.00000099  00000+0  25160-4 0  9998
2 37192  51.9947  86.1831 0000635  53.9411 116.4907 12.62267711724593
GLOBALSTAR M073         
1 37193U 10054F   26188.79983456 -.00000094  00000+0  56453-4 0  9999
2 37193  52.0077   1.5480 0001106  86.2002  17.9239 12.62266909726537
GLOBALSTAR M083         
1 37739U 11033A   26188.40290536 -.00000090  00000+0  79453-4 0  9992
2 37739  51.9875 310.9578 0000883  97.4192 303.4404 12.62263878695508
GLOBALSTAR M088         
1 37740U 11033B   26189.00479742 -.00000089  00000+0  84340-4 0  9998
2 37740  52.0184 215.6035 0000210 156.5544 219.3330 12.62269291691128
GLOBALSTAR M091         
1 37741U 11033C   26189.02311455 -.00000092  00000+0  68197-4 0  9993
2 37741  51.9969 178.4811 0000239   4.8592  35.0107 12.62264163691910
GLOBALSTAR M085         
1 37742U 11033D   26189.18982573 -.00000087  00000+0  91877-4 0  9991
2 37742  52.0117 129.2835 0000618  26.4956 111.3385 12.62264293692442
GLOBALSTAR M081         
1 37743U 11033E   26189.21666321 -.00000095  00000+0  47298-4 0  9993
2 37743  51.9947 131.6141 0000516  45.8634  93.7786 12.62265338692599
GLOBALSTAR M089         
1 37744U 11033F   26189.18231734 -.00000101  00000+0  15684-4 0  9998
2 37744  51.9932  85.8741 0000633  82.9957  81.5407 12.62267558693435
GLOBALSTAR M084         
1 38040U 11080A   26188.37488938 -.00000092  00000+0  63529-4 0  9990
2 38040  52.0030 315.8246 0000995 118.7844 274.7945 12.62267798671318
GLOBALSTAR M080         
1 38041U 11080B   26188.34276368 -.00000094  00000+0  54472-4 0  9999
2 38041  52.0077 317.6474 0000410  83.7537 293.8023 12.62265493671437
GLOBALSTAR M082         
1 38042U 11080C   26188.28285993 -.00000100  00000+0  20852-4 0  9990
2 38042  52.0074 273.3340 0000296 111.1473 283.8055 12.62263899672132
GLOBALSTAR M092         
1 38043U 11080D   26188.99457730 -.00000087  00000+0  91701-4 0  9994
2 38043  52.0101   1.5641 0000838  92.2370  57.7091 12.62267551670670
GLOBALSTAR M090         
1 38044U 11080E   26187.53447407 -.00000087  00000+0  92001-4 0  9998
2 38044  52.0122 269.5743 0000506 106.9061   4.4358 12.62252898672153
GLOBALSTAR M086         
1 38045U 11080F   26188.16754265 -.00000088  00000+0  90750-4 0  9992
2 38045  51.9893 267.5438 0001643  99.8007 272.6491 12.62287691672188
GLOBALSTAR M097         
1 39072U 13005A   26189.22587323 -.00000087  00000+0  92192-4 0  9990
2 39072  52.0018 179.2919 0000257  36.8234 323.2651 12.62271390619569
GLOBALSTAR M093         
1 39073U 13005B   26188.01131482 -.00000093  00000+0  57576-4 0  9992
2 39073  52.0076 176.3431 0000437  34.1994 325.8901 12.62266212619366
GLOBALSTAR M094         
1 39074U 13005C   26188.88218543 -.00000107  00000+0 -19810-4 0  9998
2 39074  51.9961  87.7892 0000893  49.5240 310.5704 12.62268482621089
GLOBALSTAR M096         
1 39075U 13005D   26188.26224568 -.00000092  00000+0  68255-4 0  9994
2 39075  52.0056 138.4928 0000554  27.2988 332.7908 12.62265617619926
GLOBALSTAR M078         
1 39076U 13005E   26189.10637455 -.00000093  00000+0  58544-4 0  9993
2 39076  51.9845 219.9066 0000669 316.0940  43.9873 12.62260027618654
GLOBALSTAR M095         
1 39077U 13005F   26188.02449083 -.00000095  00000+0  47916-4 0  9995
2 39077  52.0055 220.8332 0000222   1.8049 358.2819 12.62263965618376
GLOBALSTAR M087         
1 52888U 22064A   26188.75029354 -.00000101  00000+0  17379-4 0  9998
2 52888  52.0014 359.8495 0000951  74.7340 285.3632 12.62269319193731
