OBJECT_NAME,OBJECT_ID,EPOCH,MEAN_MOTION,ECCENTRICITY,INCLINATION,RA_OF_ASC_NODE,ARG_OF_PERICENTER,MEAN_ANOMALY,EPHEMERIS_TYPE,CLASSIFICATION_TYPE,NORAD_CAT_ID,ELEMENT_SET_NO,REV_AT_EPOCH,BSTAR,MEAN_MOTION_DOT,MEAN_MOTION_DDOT
GLOBALSTAR M069,2007-020C,2026-07-08T00:23:41.038080,12.23472148,.0001855,51.9998,193.1708,193.8823,195.2522,0,U,31573,999,88135,.23499E-3,-.67E-6,0
GLOBALSTAR M072,2007-020D,2026-07-08T01:05:34.960128,11.91658618,.0001614,51.9943,44.7153,21.2717,145.3602,0,U,31574,999,87746,-.16806E-4,-.85E-6,0
GLOBALSTAR M066,2007-048C,2026-07-07T19:14:15.737856,12.30388890,.0005667,51.9607,358.7350,87.1559,19.0466,0,U,32265,999,86276,.4861E-3,-.37E-6,0
GLOBALSTAR M079,2010-054A,2026-07-07T00:43:51.196224,12.62266480,.00010712,52.0047,48.2647,64.0932,83.4218,0,U,37188,999,72505,.19121308E-4,-.1E-5,0
GLOBALSTAR M074,2010-054B,2026-07-08T00:15:42.470208,12.62261985,.0000855,52.0029,44.5420,82.5330,82.5752,0,U,37189,999,72578,.12132E-4,-.102E-5,0
GLOBALSTAR M076,2010-054C,2026-07-07T18:44:28.546080,12.62262088,.0001069,52.0039,45.4473,77.7122,1.5351,0,U,37190,999,72547,.20026E-5,-.103E-5,0
GLOBALSTAR M077,2010-054D,2026-07-07T06:23:40.252704,11.67547897,.00023974,51.9942,128.3305,209.9382,317.0362,0,U,37191,999,72348,.18138207E-3,-.68E-6,0
GLOBALSTAR M075,2010-054E,2026-07-08T05:02:22.386048,12.62267711,.0000635,51.9947,86.1831,53.9411,116.4907,0,U,37192,999,72459,.2516E-4,-.99E-6,0
GLOBALSTAR M073,2010-054F,2026-07-07T19:11:45.705984,12.62266909,.0001106,52.0077,1.5480,86.2002,17.9239,0,U,37193,999,72653,.56453E-4,-.94E-6,0
GLOBALSTAR M083,2011-033A,2026-07-07T09:40:11.023104,12.62263878,.00008836,51.9875,310.9578,97.4192,303.4404,0,U,37739,999,69550,.7945328E-4,-.9E-6,0
GLOBALSTAR M088,2011-033B,2026-07-08T00:06:54.497088,12.62269291,.000021,52.0184,215.6035,156.5544,219.3330,0,U,37740,999,69112,.8434E-4,-.89E-6,0
GLOBALSTAR M091,2011-033C,2026-07-08T00:33:17.097120,12.62264163,.0000239,51.9969,178.4811,4.8592,35.0107,0,U,37741,999,69191,.68197E-4,-.92E-6,0
GLOBALSTAR M085,2011-033D,2026-07-08T04:33:20.943072,12.62264293,.0000618,52.0117,129.2835,26.4956,111.3385,0,U,37742,999,69244,.91877E-4,-.87E-6,0
GLOBALSTAR M081,2011-033E,2026-07-08T05:11:59.701344,12.62265338,.0000516,51.9947,131.6141,45.8634,93.7786,0,U,37743,999,69259,.47298E-4,-.95E-6,0
GLOBALSTAR M089,2011-033F,2026-07-08T04:22:32.218176,12.62267558,.0000633,51.9932,85.8741,82.9957,81.5407,0,U,37744,999,69343,.15684E-4,-.101E-5,0
GLOBALSTAR M084,2011-080A,2026-07-07T08:59:50.442432,12.62267798,.00009957,52.0030,315.8246,118.7844,274.7945,0,U,38040,999,67131,.63529258E-4,-.92E-6,0
GLOBALSTAR M080,2011-080B,2026-07-07T08:13:34.781952,12.62265493,.00004105,52.0077,317.6474,83.7537,293.8023,0,U,38041,999,67143,.54471536E-4,-.94E-6,0
GLOBALSTAR M082,2011-080C,2026-07-07T06:47:19.097952,12.62263899,.00002963,52.0074,273.3340,111.1473,283.8055,0,U,38042,999,67213,.2085154E-4,-.1E-5,0
GLOBALSTAR M092,2011-080D,2026-07-07T23:52:11.478720,12.62267551,.0000838,52.0101,1.5641,92.2370,57.7091,0,U,38043,999,67067,.91701E-4,-.87E-6,0
GLOBALSTAR M090,2011-080E,2026-07-06T12:49:38.559648,12.62252898,.0000506,52.0122,269.5743,106.9061,4.4358,0,U,38044,999,67215,.92001352E-4,-.87E-6,0
GLOBALSTAR M086,2011-080F,2026-07-07T04:01:15.684960,12.62287691,.00016433,51.9893,267.5438,99.8007,272.6491,0,U,38045,999,67218,.90750294E-4,-.88E-6,0
GLOBALSTAR M097,2013-005A,2026-07-08T05:25:15.447072,12.62271390,.0000257,52.0018,179.2919,36.8234,323.2651,0,U,39072,999,61956,.92192E-4,-.87E-6,0
GLOBALSTAR M093,2013-005B,2026-07-07T00:16:17.600448,12.62266212,.00004373,52.0076,176.3431,34.1994,325.8901,0,U,39073,999,61936,.57576006E-4,-.93E-6,0
GLOBALSTAR M094,2013-005C,2026-07-07T21:10:20.821152,12.62268482,.0000893,51.9961,87.7892,49.5240,310.5704,0,U,39074,999,62108,-.1981E-4,-.107E-5,0
GLOBALSTAR M096,2013-005D,2026-07-07T06:17:38.026752,12.62265617,.00005541,52.0056,138.4928,27.2988,332.7908,0,U,39075,999,61992,.68255066E-4,-.92E-6,0
GLOBALSTAR M078,2013-005E,2026-07-08T02:33:10.761120,12.62260027,.0000669,51.9845,219.9066,316.0940,43.9873,0,U,39076,999,61865,.58544E-4,-.93E-6,0
GLOBALSTAR M095,2013-005F,2026-07-07T00:35:16.007712,12.62263965,.00002225,52.0055,220.8332,1.8049,358.2819,0,U,39077,999,61837,.47915528E-4,-.95E-6,0
GLOBALSTAR M087,2022-064A,2026-07-07T18:00:25.361856,12.62269319,.0000951,52.0014,359.8495,74.7340,285.3632,0,U,52888,999,19373,.17379E-4,-.101E-5,0
